{"fetched_at":"2026-07-08T17:59:59.962Z","source":"https://celestrak.org/NORAD/elements/gp.php?NAME=PLEIADES&FORMAT=JSON","constellation":"pleiades","records":[{"OBJECT_NAME":"PLEIADES 1A","OBJECT_ID":"2011-076F","EPOCH":"2026-07-08T12:59:44.392992","CLASSIFICATION_TYPE":"U","MEAN_MOTION":14.58545505,"ECCENTRICITY":0.0001755,"INCLINATION":98.1966,"RA_OF_ASC_NODE":264.3575,"ARG_OF_PERICENTER":83.1109,"MEAN_ANOMALY":41.3789,"EPHEMERIS_TYPE":0,"NORAD_CAT_ID":38012,"ELEMENT_SET_NO":999,"REV_AT_EPOCH":77510,"BSTAR":0.00009693,"MEAN_MOTION_DOT":0.00000405,"MEAN_MOTION_DDOT":0},{"OBJECT_NAME":"PLEIADES 1B","OBJECT_ID":"2012-068A","EPOCH":"2026-07-08T11:35:39.590304","CLASSIFICATION_TYPE":"U","MEAN_MOTION":14.58533551,"ECCENTRICITY":0.0001624,"INCLINATION":98.1936,"RA_OF_ASC_NODE":264.2417,"ARG_OF_PERICENTER":82.4044,"MEAN_ANOMALY":277.734,"EPHEMERIS_TYPE":0,"NORAD_CAT_ID":39019,"ELEMENT_SET_NO":999,"REV_AT_EPOCH":72395,"BSTAR":0.00022488,"MEAN_MOTION_DOT":0.00000999,"MEAN_MOTION_DDOT":0}]}
