PLEIADES 1A             
1 38012U 11076F   26189.54148603  .00000405  00000+0  96930-4 0  9995
2 38012  98.1966 264.3575 0001755  83.1109  41.3789 14.58545505775101
PLEIADES 1B             
1 39019U 12068A   26189.48309711  .00000999  00000+0  22488-3 0  9991
2 39019  98.1936 264.2417 0001624  82.4044 277.7340 14.58533551723957
